STARLINK-1090
1 44968U 20001BG  26061.13000183  .00166190  00000+0  10736-1 0  9995
2 44968  53.0545 340.5520 0001557  95.8507 264.2660 15.07015638339272
